STARLINK-1795           
1 46696U 20073AC  26069.00003471  .00014578  00000+0  13904-3 0  9995
2 46696  53.0409 179.3296 0002302  81.3490 194.9515 15.67071138  5898
HAISHAO-1               
1 62190U 24228A   26068.89414277  .00044178  00000+0  42909-3 0  9990
2 62190  42.9815 238.9951 0005269 331.3833  28.6742 15.65560642 72022
