[{"OBJECT_NAME":"STARLINK-1795","OBJECT_ID":"2020-073AC","EPOCH":"2026-03-10T00:00:02.999808","MEAN_MOTION":15.67071138,"ECCENTRICITY":0.00023019,"INCLINATION":53.0409,"RA_OF_ASC_NODE":179.3296,"ARG_OF_PERICENTER":81.349,"MEAN_ANOMALY":194.9515,"EPHEMERIS_TYPE":0,"CLASSIFICATION_TYPE":"U","NORAD_CAT_ID":46696,"ELEMENT_SET_NO":999,"REV_AT_EPOCH":589,"BSTAR":0.00013904213,"MEAN_MOTION_DOT":0.00014578,"MEAN_MOTION_DDOT":0},{"OBJECT_NAME":"HAISHAO-1","OBJECT_ID":"2024-228A","EPOCH":"2026-03-09T21:27:33.935328","MEAN_MOTION":15.65560642,"ECCENTRICITY":0.00052692,"INCLINATION":42.9815,"RA_OF_ASC_NODE":238.9951,"ARG_OF_PERICENTER":331.3833,"MEAN_ANOMALY":28.6742,"EPHEMERIS_TYPE":0,"CLASSIFICATION_TYPE":"U","NORAD_CAT_ID":62190,"ELEMENT_SET_NO":999,"REV_AT_EPOCH":7202,"BSTAR":0.00042908913,"MEAN_MOTION_DOT":0.00044178,"MEAN_MOTION_DDOT":0}]
